start=new Date('2022-11-11T00:00:00.000Z').valueOf();
sats=[{"EPOCH":"2022-11-10T07:17:27.189888","PERIOD":"95.593","REF_FRAME":"TEME","MEAN_ELEMENT_THEORY":"SGP4","MEAN_ANOMALY":"316.2896","INCLINATION":"53.0540","SEMIMAJOR_AXIS":"6925.394","CENTER_NAME":"EARTH","NORAD_CAT_ID":"46675","TLE_LINE1":"1 46675U 20073F   22314.30378692 -.00005010  00000-0 -31778-3 0  9997","EPHEMERIS_TYPE":"0","TLE_LINE2":"2 46675  53.0540 297.6986 0001958  43.8248 316.2896 15.06385308114422","DECAY_DATE":null,"PERIAPSIS":"545.903","TIME_SYSTEM":"UTC","ELEMENT_SET_NO":"999","RA_OF_ASC_NODE":"297.6986","COUNTRY_CODE":"US","ARG_OF_PERICENTER":"43.8248","APOAPSIS":"548.615","ECCENTRICITY":"0.00019580","MEAN_MOTION":"15.06385308","LAUNCH_DATE":"2020-10-18","OBJECT_NAME":"STARLINK-1720","GP_ID":"217347478","MEAN_MOTION_DOT":"-0.00005010","MEAN_MOTION_DDOT":"0.0000000000000","OBJECT_ID":"2020-073F","SITE":"AFETR","RCS_SIZE":"LARGE","BSTAR":"-0.00031778000000","OBJECT_TYPE":"PAYLOAD","FILE":"3650809","REV_AT_EPOCH":"11442","CLASSIFICATION_TYPE":"U"},{"RA_OF_ASC_NODE":"297.1221","PERIAPSIS":"546.051","TIME_SYSTEM":"UTC","ELEMENT_SET_NO":"999","DECAY_DATE":null,"TLE_LINE2":"2 46677  53.0547 297.1221 0001705  53.2791 306.8354 15.06393899114446","SEMIMAJOR_AXIS":"6925.367","INCLINATION":"53.0547","CENTER_NAME":"EARTH","TLE_LINE1":"1 46677U 20073H   22314.43279195  .00012748  00000-0  87331-3 0  9991","NORAD_CAT_ID":"46677","EPHEMERIS_TYPE":"0","MEAN_ANOMALY":"306.8354","REF_FRAME":"TEME","PERIOD":"95.593","MEAN_ELEMENT_THEORY":"SGP4","EPOCH":"2022-11-10T10:23:13.224480","REV_AT_EPOCH":"11444","CLASSIFICATION_TYPE":"U","BSTAR":"0.00087331000000","OBJECT_TYPE":"PAYLOAD","FILE":"3650591","SITE":"AFETR","RCS_SIZE":"LARGE","LAUNCH_DATE":"2020-10-18","OBJECT_NAME":"STARLINK-1766","GP_ID":"217342198","MEAN_MOTION_DOT":"0.00012748","MEAN_MOTION_DDOT":"0.0000000000000","OBJECT_ID":"2020-073H","MEAN_MOTION":"15.06393899","APOAPSIS":"548.413","ECCENTRICITY":"0.00017050","COUNTRY_CODE":"US","ARG_OF_PERICENTER":"53.2791"},{"SITE":"AFETR","RCS_SIZE":"LARGE","LAUNCH_DATE":"2020-10-18","OBJECT_NAME":"STARLINK-1773","MEAN_MOTION_DDOT":"0.0000000000000","GP_ID":"217368348","OBJECT_ID":"2020-073K","MEAN_MOTION_DOT":"-0.00001557","REV_AT_EPOCH":"11427","CLASSIFICATION_TYPE":"U","BSTAR":"-0.00008562400000","OBJECT_TYPE":"PAYLOAD","FILE":"3650843","APOAPSIS":"548.648","ECCENTRICITY":"0.00020850","COUNTRY_CODE":"US","ARG_OF_PERICENTER":"43.4583","MEAN_MOTION":"15.06403091","PERIAPSIS":"545.760","TIME_SYSTEM":"UTC","ELEMENT_SET_NO":"999","DECAY_DATE":null,"RA_OF_ASC_NODE":"276.2007","MEAN_ANOMALY":"316.6570","PERIOD":"95.592","MEAN_ELEMENT_THEORY":"SGP4","REF_FRAME":"TEME","EPOCH":"2022-11-10T15:17:47.448672","TLE_LINE2":"2 46679  53.0554 276.2007 0002085  43.4583 316.6570 15.06403091114274","CENTER_NAME":"EARTH","SEMIMAJOR_AXIS":"6925.339","INCLINATION":"53.0554","NORAD_CAT_ID":"46679","TLE_LINE1":"1 46679U 20073K   22314.63735473 -.00001557  00000-0 -85624-4 0  9993","EPHEMERIS_TYPE":"0"},{"MEAN_MOTION":"15.06377992","COUNTRY_CODE":"US","ARG_OF_PERICENTER":"52.4445","APOAPSIS":"548.507","ECCENTRICITY":"0.00017700","FILE":"3650843","BSTAR":"-0.00011243000000","OBJECT_TYPE":"PAYLOAD","REV_AT_EPOCH":"11380","CLASSIFICATION_TYPE":"U","MEAN_MOTION_DDOT":"0.0000000000000","GP_ID":"217367112","OBJECT_ID":"2020-073L","MEAN_MOTION_DOT":"-0.00001955","LAUNCH_DATE":"2020-10-18","OBJECT_NAME":"STARLINK-1774","RCS_SIZE":"LARGE","SITE":"AFETR","EPHEMERIS_TYPE":"0","INCLINATION":"53.0548","SEMIMAJOR_AXIS":"6925.416","CENTER_NAME":"EARTH","NORAD_CAT_ID":"46680","TLE_LINE1":"1 46680U 20073L   22314.77237092 -.00001955  00000-0 -11243-3 0  9991","TLE_LINE2":"2 46680  53.0548 310.5998 0001770  52.4445 307.6704 15.06377992113804","PERIOD":"95.594","MEAN_ELEMENT_THEORY":"SGP4","EPOCH":"2022-11-10T18:32:12.847488","REF_FRAME":"TEME","MEAN_ANOMALY":"307.6704","RA_OF_ASC_NODE":"310.5998","DECAY_DATE":null,"TIME_SYSTEM":"UTC","ELEMENT_SET_NO":"999","PERIAPSIS":"546.055"},{"ECCENTRICITY":"0.00023820","APOAPSIS":"548.862","ARG_OF_PERICENTER":"34.0018","COUNTRY_CODE":"US","MEAN_MOTION":"15.06400404","SITE":"AFETR","RCS_SIZE":"LARGE","OBJECT_NAME":"STARLINK-1775","LAUNCH_DATE":"2020-10-18","OBJECT_ID":"2020-073M","GP_ID":"217342208","MEAN_MOTION_DDOT":"0.0000000000000","MEAN_MOTION_DOT":"-0.00000994","CLASSIFICATION_TYPE":"U","REV_AT_EPOCH":"11422","OBJECT_TYPE":"PAYLOAD","BSTAR":"-0.00004784300000","FILE":"3650573","MEAN_ANOMALY":"326.1124","PERIOD":"95.592","EPOCH":"2022-11-10T09:52:02.688672","REF_FRAME":"TEME","MEAN_ELEMENT_THEORY":"SGP4","TLE_LINE2":"2 46681  53.0567 312.2195 0002382  34.0018 326.1124 15.06400404114220","TLE_LINE1":"1 46681U 20073M   22314.41114223 -.00000994  00000-0 -47843-4 0  9991","NORAD_CAT_ID":"46681","SEMIMAJOR_AXIS":"6925.347","CENTER_NAME":"EARTH","INCLINATION":"53.0567","EPHEMERIS_TYPE":"0","PERIAPSIS":"545.563","ELEMENT_SET_NO":"999","TIME_SYSTEM":"UTC","DECAY_DATE":null,"RA_OF_ASC_NODE":"312.2195"},{"RA_OF_ASC_NODE":"312.1141","ELEMENT_SET_NO":"999","TIME_SYSTEM":"UTC","PERIAPSIS":"546.017","DECAY_DATE":null,"TLE_LINE2":"2 46682  53.0535 312.1141 0001856  52.1292 307.9864 15.06371032114341","EPHEMERIS_TYPE":"0","TLE_LINE1":"1 46682U 20073N   22314.43695005 -.00006033  00000-0 -38673-3 0  9996","NORAD_CAT_ID":"46682","CENTER_NAME":"EARTH","SEMIMAJOR_AXIS":"6925.437","INCLINATION":"53.0535","MEAN_ANOMALY":"307.9864","REF_FRAME":"TEME","PERIOD":"95.594","MEAN_ELEMENT_THEORY":"SGP4","EPOCH":"2022-11-10T10:29:12.484320","CLASSIFICATION_TYPE":"U","REV_AT_EPOCH":"11434","FILE":"3650636","OBJECT_TYPE":"PAYLOAD","BSTAR":"-0.00038673000000","RCS_SIZE":"LARGE","SITE":"AFETR","MEAN_MOTION_DDOT":"0.0000000000000","GP_ID":"217343103","MEAN_MOTION_DOT":"-0.00006033","OBJECT_ID":"2020-073N","OBJECT_NAME":"STARLINK-1776","LAUNCH_DATE":"2020-10-18","MEAN_MOTION":"15.06371032","ECCENTRICITY":"0.00018560","APOAPSIS":"548.588","ARG_OF_PERICENTER":"52.1292","COUNTRY_CODE":"US"},{"ARG_OF_PERICENTER":"55.3528","COUNTRY_CODE":"US","ECCENTRICITY":"0.00019130","APOAPSIS":"548.529","MEAN_MOTION":"15.06403079","OBJECT_NAME":"STARLINK-1780","LAUNCH_DATE":"2020-10-18","MEAN_MOTION_DOT":"0.00022027","GP_ID":"217367849","MEAN_MOTION_DDOT":"0.0000000000000","OBJECT_ID":"2020-073Q","SITE":"AFETR","RCS_SIZE":"LARGE","OBJECT_TYPE":"PAYLOAD","BSTAR":"0.00149290000000","FILE":"3650843","CLASSIFICATION_TYPE":"U","REV_AT_EPOCH":"11400","MEAN_ELEMENT_THEORY":"SGP4","PERIOD":"95.592","REF_FRAME":"TEME","EPOCH":"2022-11-10T16:34:46.000416","MEAN_ANOMALY":"304.7641","TLE_LINE1":"1 46684U 20073Q   22314.69081019  .00022027  00000-0  14929-2 0  9996","NORAD_CAT_ID":"46684","SEMIMAJOR_AXIS":"6925.339","CENTER_NAME":"EARTH","INCLINATION":"53.0544","EPHEMERIS_TYPE":"0","TLE_LINE2":"2 46684  53.0544 295.9711 0001913  55.3528 304.7641 15.06403079114003","DECAY_DATE":null,"PERIAPSIS":"545.879","ELEMENT_SET_NO":"999","TIME_SYSTEM":"UTC","RA_OF_ASC_NODE":"295.9711"},{"RA_OF_ASC_NODE":"312.4816","TIME_SYSTEM":"UTC","ELEMENT_SET_NO":"999","PERIAPSIS":"546.136","DECAY_DATE":null,"TLE_LINE2":"2 46685  53.0544 312.4816 0001646  64.6736 295.4424 15.06379805113735","EPHEMERIS_TYPE":"0","SEMIMAJOR_AXIS":"6925.410","CENTER_NAME":"EARTH","INCLINATION":"53.0544","TLE_LINE1":"1 46685U 20073R   22314.34754379 -.00004392  00000-0 -27628-3 0  9993","NORAD_CAT_ID":"46685","MEAN_ANOMALY":"295.4424","PERIOD":"95.593","MEAN_ELEMENT_THEORY":"SGP4","REF_FRAME":"TEME","EPOCH":"2022-11-10T08:20:27.783456","REV_AT_EPOCH":"11373","CLASSIFICATION_TYPE":"U","FILE":"3650424","BSTAR":"-0.00027628000000","OBJECT_TYPE":"PAYLOAD","RCS_SIZE":"LARGE","SITE":"AFETR","MEAN_MOTION_DDOT":"0.0000000000000","GP_ID":"217305325","OBJECT_ID":"2020-073R","MEAN_MOTION_DOT":"-0.00004392","LAUNCH_DATE":"2020-10-18","OBJECT_NAME":"STARLINK-1781","MEAN_MOTION":"15.06379805","APOAPSIS":"548.415","ECCENTRICITY":"0.00016460","COUNTRY_CODE":"US","ARG_OF_PERICENTER":"64.6736"},{"MEAN_ELEMENT_THEORY":"SGP4","PERIOD":"95.592","REF_FRAME":"TEME","EPOCH":"2022-11-10T17:21:48.196800","MEAN_ANOMALY":"314.5170","EPHEMERIS_TYPE":"0","NORAD_CAT_ID":"46686","TLE_LINE1":"1 46686U 20073S   22314.72347450 -.00001395  00000-0 -74774-4 0  9999","SEMIMAJOR_AXIS":"6925.346","INCLINATION":"53.0523","CENTER_NAME":"EARTH","TLE_LINE2":"2 46686  53.0523 310.7768 0001846  45.5970 314.5170 15.06400950113793","DECAY_DATE":null,"ELEMENT_SET_NO":"999","TIME_SYSTEM":"UTC","PERIAPSIS":"545.932","RA_OF_ASC_NODE":"310.7768","ARG_OF_PERICENTER":"45.5970","COUNTRY_CODE":"US","ECCENTRICITY":"0.00018460","APOAPSIS":"548.489","MEAN_MOTION":"15.06400950","GP_ID":"217367364","MEAN_MOTION_DDOT":"0.0000000000000","OBJECT_ID":"2020-073S","MEAN_MOTION_DOT":"-0.00001395","OBJECT_NAME":"STARLINK-1783","LAUNCH_DATE":"2020-10-18","RCS_SIZE":"LARGE","SITE":"AFETR","FILE":"3650843","OBJECT_TYPE":"PAYLOAD","BSTAR":"-0.00007477400000","CLASSIFICATION_TYPE":"U","REV_AT_EPOCH":"11379"},{"RA_OF_ASC_NODE":"277.6442","DECAY_DATE":null,"PERIAPSIS":"545.999","TIME_SYSTEM":"UTC","ELEMENT_SET_NO":"999","INCLINATION":"53.0546","SEMIMAJOR_AXIS":"6925.435","CENTER_NAME":"EARTH","NORAD_CAT_ID":"46687","TLE_LINE1":"1 46687U 20073T   22314.31669360 -.00007344  00000-0 -47501-3 0  9999","EPHEMERIS_TYPE":"0","TLE_LINE2":"2 46687  53.0546 277.6442 0001878  43.9358 316.1780 15.06371821114224","PERIOD":"95.594","REF_FRAME":"TEME","EPOCH":"2022-11-10T07:36:02.327040","MEAN_ELEMENT_THEORY":"SGP4","MEAN_ANOMALY":"316.1780","BSTAR":"-0.00047501000000","OBJECT_TYPE":"PAYLOAD","FILE":"3650424","REV_AT_EPOCH":"11422","CLASSIFICATION_TYPE":"U","LAUNCH_DATE":"2020-10-18","OBJECT_NAME":"STARLINK-1784","MEAN_MOTION_DOT":"-0.00007344","GP_ID":"217306825","MEAN_MOTION_DDOT":"0.0000000000000","OBJECT_ID":"2020-073T","SITE":"AFETR","RCS_SIZE":"LARGE","MEAN_MOTION":"15.06371821","COUNTRY_CODE":"US","ARG_OF_PERICENTER":"43.9358","APOAPSIS":"548.601","ECCENTRICITY":"0.00018780"}];
